     2.100          NAVIGATION                              RINEX VERSION / TYPE
fic2rin                                 05/11/2009 01:50:56 PGM / RUN BY / DATE
                                                            END OF HEADER
12 09  5 10 10  0  0.0 -.283168163151D-03  .522959453519D-11  .000000000000D+00
     .107000000000D+03  .421875000000D+01  .437946813671D-08 -.306216448785D+01
     .266358256340D-06  .335975177586D-02  .830926001072D-05  .515366115761D+04
     .360000000000D+05 -.204890966415D-07 -.223347243716D+01  .100582838058D-06
     .966665431392D+00  .217031250000D+03 -.727501531702D+00 -.776139472182D-08
     .760388816103D-09  .100000000000D+01  .153100000000D+04  .000000000000D+00
     .240000000000D+01  .000000000000D+00 -.116415321827D-07  .107000000000D+03
     .288060000000D+05  .400000000000D+01
13 09  5 10 10  0  0.0  .296718440950D-03  .909494701773D-12  .000000000000D+00
     .920000000000D+02 -.560312500000D+02  .385337479424D-08 -.757138787607D+00
    -.290386378765D-05  .411570072174D-02  .158324837685D-05  .515371136856D+04
     .360000000000D+05 -.111758708954D-07  .200799824251D+01  .577419996262D-07
     .994735572878D+00  .366687500000D+03  .155554724178D+01 -.803354891527D-08
    -.189293599124D-09  .100000000000D+01  .153100000000D+04  .000000000000D+00
     .240000000000D+01  .000000000000D+00 -.111758708954D-07  .920000000000D+02
     .288060000000D+05  .400000000000D+01
14 09  5 10 10  0  0.0 -.112918671221D-03  .591171556152D-11  .000000000000D+00
     .650000000000D+02 -.528125000000D+02  .405481175633D-08 -.959766521854D+00
    -.280886888504D-05  .439328048378D-02  .981613993645D-06  .515360051346D+04
     .360000000000D+05  .633299350739D-07  .198859176814D+01  .160187482834D-06
     .988245360226D+00  .376281250000D+03 -.214377409350D+01 -.819319842246D-08
    -.272154193457D-09  .100000000000D+01  .153100000000D+04  .000000000000D+00
     .240000000000D+01  .000000000000D+00 -.931322574615D-08  .650000000000D+02
     .288060000000D+05  .400000000000D+01
15 09  5 10 10  0  0.0 -.290144234896D-03 -.386535248253D-11  .000000000000D+00
     .200000000000D+02 -.504062500000D+02  .467233747875D-08 -.764291593893D+00
    -.256299972534D-05  .142741599120D-02  .342726707458D-06  .515361305809D+04
     .360000000000D+05 -.949949026108D-07  .193663119281D+01 -.763684511185D-07
     .956266597142D+00  .372750000000D+03 -.477089708404D+00 -.845249493748D-08
    -.225366530278D-09  .100000000000D+01  .153100000000D+04  .000000000000D+00
     .240000000000D+01  .000000000000D+00 -.977888703346D-08  .200000000000D+02
     .288060000000D+05  .400000000000D+01
17 09  5 10 10  0  0.0  .582714565098D-04  .181898940355D-11  .000000000000D+00
     .200000000000D+02 -.154687500000D+02  .509878381338D-08 -.373007328064D+00
    -.711530447006D-06  .447427900508D-02  .544823706150D-05  .515366720963D+04
     .360000000000D+05  .558793544769D-08 -.117390611354D+01  .651925802231D-07
     .959331827450D+00  .274562500000D+03 -.265269028400D+01 -.816033991091D-08
    -.205008539429D-09  .100000000000D+01  .153100000000D+04  .000000000000D+00
     .240000000000D+01  .000000000000D+00 -.102445483208D-07  .200000000000D+02
     .288060000000D+05  .400000000000D+01
19 09  5 10 10  0  0.0  .261007808149D-04 -.102318153949D-11  .000000000000D+00
     .390000000000D+02 -.172187500000D+02  .512485632798D-08 -.998545194421D+00
    -.109151005745D-05  .554646586534D-02  .557117164135D-05  .515359037590D+04
     .360000000000D+05  .279396772385D-07 -.111777915482D+01 -.670552253723D-07
     .957085099807D+00  .269375000000D+03 -.367444596697D+00 -.823391440416D-08
    -.163221084528D-09  .100000000000D+01  .153100000000D+04  .000000000000D+00
     .240000000000D+01  .000000000000D+00 -.144354999065D-07  .390000000000D+02
     .288060000000D+05  .400000000000D+01
20 09  5 10 10  0  0.0  .830404460430D-04 -.102318153949D-11  .000000000000D+00
     .800000000000D+02  .118937500000D+03  .482591530446D-08  .105599819621D+01
     .611878931522D-05  .400873611216D-02  .536441802979D-05  .515362141418D+04
     .360000000000D+05 -.949949026108D-07  .879109000224D+00 -.186264514923D-08
     .942338743665D+00  .267062500000D+03  .135438031170D+01 -.833177562333D-08
     .642883921553D-10  .100000000000D+01  .153100000000D+04  .000000000000D+00
     .240000000000D+01  .000000000000D+00 -.651925802231D-08  .800000000000D+02
     .288060000000D+05  .400000000000D+01
21 09  5 10 10  0  0.0  .147800892591D-04 -.204636307899D-11  .000000000000D+00
     .100000000000D+02  .432187500000D+02  .496806408267D-08  .219781432539D+01
     .215880572796D-05  .151856964221D-01  .115949660540D-04  .515362528801D+04
     .360000000000D+05 -.402331352234D-06 -.125078707264D+00 -.122934579849D-06
     .934585688925D+00  .146156250000D+03 -.260934683743D+01 -.797211778499D-08
    -.513949979508D-09  .100000000000D+01  .153100000000D+04  .000000000000D+00
     .240000000000D+01  .000000000000D+00 -.121071934700D-07  .100000000000D+02
     .288060000000D+05  .400000000000D+01
22 09  5 10 10  0  0.0  .199952162802D-03 -.682121026330D-12  .000000000000D+00
     .450000000000D+02  .132625000000D+03  .499413659726D-08 -.136459791527D+00
     .701285898685D-05  .493964692578D-02  .462867319584D-05  .515366617393D+04
     .360000000000D+05 -.316649675369D-07  .938673096668D+00 -.931322574615D-08
     .940314808206D+00  .276750000000D+03 -.187223022252D+01 -.852785521940D-08
     .850035407387D-10  .100000000000D+01  .153100000000D+04  .000000000000D+00
     .240000000000D+01  .000000000000D+00 -.176951289177D-07  .450000000000D+02
     .288060000000D+05  .400000000000D+01
23 09  5 10 10  0  0.0  .389935448766D-03  .113686837722D-12  .000000000000D+00
     .580000000000D+02 -.460312500000D+02  .432196574151D-08 -.153759730717D+01
    -.246800482273D-05  .603961187880D-02  .124797224998D-05  .515361425972D+04
     .360000000000D+05 -.707805156708D-07  .195636426217D+01 -.391155481339D-07
     .970233100915D+00  .360937500000D+03  .287701779225D+01 -.822177104119D-08
    -.110004582132D-09  .100000000000D+01  .153100000000D+04  .000000000000D+00
     .240000000000D+01  .000000000000D+00 -.200234353542D-07  .580000000000D+02
     .288060000000D+05  .400000000000D+01
25 09  5 10 10  0  0.0  .404675956815D-03  .200088834390D-10  .000000000000D+00
     .350000000000D+02 -.114781250000D+03  .393337812670D-08  .133013721803D+01
    -.604242086411D-05  .114706560271D-01  .831112265587D-05  .515365806198D+04
     .360000000000D+05  .162050127983D-06  .290378286891D+01 -.266358256340D-06
     .969783731979D+00  .224250000000D+03 -.120788553705D+01 -.777460955798D-08
     .378587198248D-10  .100000000000D+01  .153100000000D+04  .000000000000D+00
     .240000000000D+01  .000000000000D+00 -.745058059692D-08  .350000000000D+02
     .288060000000D+05  .400000000000D+01
26 09  5 10 10  0  0.0  .603576190770D-04  .136424205266D-11  .000000000000D+00
     .730000000000D+02 -.703750000000D+02  .383158817246D-08 -.268272231859D+01
    -.358186662197D-05  .204366472317D-01  .433996319771D-06  .515488137245D+04
     .360000000000D+05  .171363353729D-06  .200565220760D+01 -.121071934700D-06
     .992581044185D+00  .388406250000D+03  .100345639035D+01 -.775960893314D-08
    -.118933525487D-09  .100000000000D+01  .153100000000D+04  .000000000000D+00
     .240000000000D+01  .000000000000D+00 -.651925802231D-08  .730000000000D+02
     .288060000000D+05  .400000000000D+01
27 09  5 10 10  0  0.0  .478648580611D-04  .318323145621D-11  .000000000000D+00
     .560000000000D+02 -.116125000000D+03  .383873132714D-08 -.627826875258D+00
    -.598840415478D-05  .208362332778D-01  .972673296928D-05  .515509851837D+04
     .360000000000D+05 -.225380063057D-06  .294008303933D+01  .255182385445D-06
     .974503696722D+00  .206281250000D+03 -.161086534870D+01 -.802997733793D-08
     .158578033983D-09  .100000000000D+01  .153100000000D+04  .000000000000D+00
     .240000000000D+01  .000000000000D+00 -.419095158577D-08  .560000000000D+02
     .288060000000D+05  .400000000000D+01
28 09  5 10 10  0  0.0 -.246721319854D-04 -.341060513165D-12  .000000000000D+00
     .590000000000D+02  .111562500000D+02  .454268922124D-08  .130625592303D+00
     .527128577232D-06  .148738409625D-01  .844150781631D-05  .515363996696D+04
     .360000000000D+05 -.212341547012D-06 -.220834310480D+01  .216066837311D-06
     .966301884546D+00  .224406250000D+03 -.202719439169D+01 -.807997942072D-08
     .665384858807D-09  .100000000000D+01  .153100000000D+04  .000000000000D+00
     .240000000000D+01  .000000000000D+00 -.107102096081D-07  .590000000000D+02
     .288060000000D+05  .400000000000D+01
29 09  5 10 10  0  0.0  .185887329280D-04  .386535248253D-11  .000000000000D+00
     .140000000000D+02 -.140000000000D+02  .506663961731D-08  .221203372235D+01
    -.827014446259D-06  .342127436306D-02  .554323196411D-05  .515367671585D+04
     .360000000000D+05  .596046447754D-07 -.116570571600D+01 -.391155481339D-07
     .959555169690D+00  .275406250000D+03 -.132838446370D+01 -.805854995667D-08
    -.228223792151D-09  .100000000000D+01  .153100000000D+04  .000000000000D+00
     .240000000000D+01  .000000000000D+00 -.884756445885D-08  .140000000000D+02
     .288060000000D+05  .400000000000D+01
30 09  5 10 10  0  0.0  .145232304931D-03  .272848410532D-11  .000000000000D+00
     .490000000000D+02  .593750000000D+00  .479127100424D-08  .605954254553D+00
    -.109896063805D-06  .113336769864D-01  .871717929840D-05  .515359866714D+04
     .360000000000D+05 -.104308128357D-06 -.228096161070D+01  .335276126862D-07
     .951744906076D+00  .206375000000D+03  .141582253602D+01 -.821748514838D-08
     .653241495845D-09  .100000000000D+01  .153100000000D+04  .000000000000D+00
     .240000000000D+01  .000000000000D+00 -.838190317154D-08  .490000000000D+02
     .288060000000D+05  .400000000000D+01
